CCSDS_OMM_VERS,COMMENT,CREATION_DATE,ORIGINATOR,OBJECT_NAME,OBJECT_ID,CENTER_NAME,REF_FRAME,TIME_SYSTEM,MEAN_ELEMENT_THEORY,EPOCH,MEAN_MOTION,ECCENTRICITY,INCLINATION,RA_OF_ASC_NODE,ARG_OF_PERICENTER,MEAN_ANOMALY,EPHEMERIS_TYPE,CLASSIFICATION_TYPE,NORAD_CAT_ID,ELEMENT_SET_NO,REV_AT_EPOCH,BSTAR,MEAN_MOTION_DOT,MEAN_MOTION_DDOT,SEMIMAJOR_AXIS,PERIOD,APOAPSIS,PERIAPSIS,OBJECT_TYPE,RCS_SIZE,COUNTRY_CODE,LAUNCH_DATE,SITE,DECAY_DATE,FILE,GP_ID,TLE_LINE0,TLE_LINE1,TLE_LINE2
2,GENERATED VIA SPACE-TRACK.ORG API,2019-11-08T04:26:41,18 SPCS,SKYNET 4D,1998-002A,EARTH,TEME,UTC,SGP4,2019-11-07T05:03:42.885792,0.99151382,0.0001823,11.2407,24.9782,88.4642,278.1446,0,U,25134,999,7944,0.0,-4.9e-07,0,42481.775,1452.324,36111.384,36095.896,PAYLOAD,LARGE,UK,1998-01-10,AFETR,,2648294,142677908,0 SKYNET 4D,1 25134U 98002A   19311.21091303 -.00000049 +00000-0 +00000-0 0  9992,2 25134 011.2407 024.9782 0001823 088.4642 278.1446 00.99151382079444
2,GENERATED VIA SPACE-TRACK.ORG API,2019-11-09T22:50:16,18 SPCS,SKYNET 4D,1998-002A,EARTH,TEME,UTC,SGP4,2019-11-09T05:22:17.253984,0.99151113,0.0001675,11.242,24.9643,90.0457,275.0791,0,U,25134,999,7952,0.0,-6e-08,0,42481.852,1452.328,36110.833,36096.601,PAYLOAD,LARGE,UK,1998-01-10,AFETR,,2648955,142782759,0 SKYNET 4D,1 25134U 98002A   19313.22381081 -.00000006  00000-0  00000+0 0  9992,2 25134  11.2420  24.9643 0001675  90.0457 275.0791  0.99151113 79523
2,GENERATED VIA SPACE-TRACK.ORG API,2019-11-11T03:55:08,18 SPCS,SKYNET 4D,1998-002A,EARTH,TEME,UTC,SGP4,2019-11-10T05:41:30.993792,0.99151006,0.0001564,11.2427,24.9574,89.8882,276.958,0,U,25134,999,7947,0.0,1.3e-07,0,42481.882,1452.33,36110.392,36097.103,PAYLOAD,LARGE,UK,1998-01-10,AFETR,,2649535,142821559,0 SKYNET 4D,1 25134U 98002A   19314.23716428 +.00000013 +00000-0 +00000-0 0  9999,2 25134 011.2427 024.9574 0001564 089.8882 276.9580 00.99151006079479
2,GENERATED VIA SPACE-TRACK.ORG API,2019-11-11T06:30:16,18 SPCS,SKYNET 4D,1998-002A,EARTH,TEME,UTC,SGP4,2019-11-11T04:37:13.008288,0.99150792,7.65e-05,11.2434,24.951,74.8037,273.0497,0,U,25134,999,7954,0.0,2.9e-07,0,42481.944,1452.333,36107.058,36100.559,PAYLOAD,LARGE,UK,1998-01-10,AFETR,,2649610,142835934,0 SKYNET 4D,1 25134U 98002A   19315.19251167  .00000029  00000-0  00000+0 0  9995,2 25134  11.2434  24.9510 0000765  74.8037 273.0497  0.99150792 79549
2,GENERATED VIA SPACE-TRACK.ORG API,2019-11-13T04:23:47,18 SPCS,SKYNET 4D,1998-002A,EARTH,TEME,UTC,SGP4,2019-11-12T12:57:00.207072,0.99150879,0.0001273,11.2443,24.9422,86.3838,22.3211,0,U,25134,999,7949,0.0,4.8e-07,0,42481.919,1452.332,36109.192,36098.376,PAYLOAD,LARGE,UK,1998-01-10,AFETR,,2650626,142922426,0 SKYNET 4D,1 25134U 98002A   19316.53958573 +.00000048 +00000-0 +00000-0 0  9991,2 25134 011.2443 024.9422 0001273 086.3838 022.3211 00.99150879079492
2,GENERATED VIA SPACE-TRACK.ORG API,2019-11-13T06:40:15,18 SPCS,SKYNET 4D,1998-002A,EARTH,TEME,UTC,SGP4,2019-11-12T12:57:00.207072,0.99150879,0.0001273,11.2443,24.9422,86.3838,22.3211,0,U,25134,999,7955,0.0,4.8e-07,0,42481.919,1452.332,36109.192,36098.376,PAYLOAD,LARGE,UK,1998-01-10,AFETR,,2650706,142936718,0 SKYNET 4D,1 25134U 98002A   19316.53958573  .00000048  00000-0  00000+0 0  9990,2 25134  11.2443  24.9422 0001273  86.3838  22.3211  0.99150879 79559
2,GENERATED VIA SPACE-TRACK.ORG API,2019-11-14T06:10:12,18 SPCS,SKYNET 4D,1998-002A,EARTH,TEME,UTC,SGP4,2019-11-13T08:00:56.772288,0.99150855,0.0001192,11.2448,24.9371,84.3024,307.968,0,U,25134,999,7950,0.0,5.7e-07,0,42481.926,1452.332,36108.854,36098.727,PAYLOAD,LARGE,UK,1998-01-10,AFETR,,2651161,142972573,0 SKYNET 4D,1 25134U 98002A   19317.33399042 +.00000057 +00000-0 +00000-0 0  9990,2 25134 011.2448 024.9371 0001192 084.3024 307.9680 00.99150855079503
2,GENERATED VIA SPACE-TRACK.ORG API,2019-11-15T20:49:02,18 SPCS,SKYNET 4D,1998-002A,EARTH,TEME,UTC,SGP4,2019-11-14T09:08:33.978912,0.99150871,0.0001092,11.2455,24.9305,79.7682,326.2177,0,U,25134,999,7951,0.0,6.5e-07,0,42481.921,1452.332,36108.425,36099.147,PAYLOAD,LARGE,UK,1998-01-10,AFETR,,2651877,143043986,0 SKYNET 4D,1 25134U 98002A   19318.38094883 +.00000065 +00000-0 +00000-0 0  9990,2 25134 011.2455 024.9305 0001092 079.7682 326.2177 00.99150871079519
2,GENERATED VIA SPACE-TRACK.ORG API,2019-11-16T07:00:18,18 SPCS,SKYNET 4D,1998-002A,EARTH,TEME,UTC,SGP4,2019-11-16T05:17:32.601408,0.99151016,0.0001016,11.2468,24.9192,69.6694,272.9569,0,U,25134,999,7959,0.0,7e-07,0,42481.88,1452.33,36108.061,36099.428,PAYLOAD,LARGE,UK,1998-01-10,AFETR,,2652163,143101391,0 SKYNET 4D,1 25134U 98002A   19320.22051622  .00000070  00000-0  00000+0 0  9995,2 25134  11.2468  24.9192 0001016  69.6694 272.9569  0.99151016 79596
2,GENERATED VIA SPACE-TRACK.ORG API,2019-11-17T05:40:37,18 SPCS,SKYNET 4D,1998-002A,EARTH,TEME,UTC,SGP4,2019-11-16T18:31:42.655008,0.991511,0.0001037,11.2471,24.9157,66.8804,112.6086,0,U,25134,999,7953,0.0,6.9e-07,0,42481.856,1452.328,36108.126,36099.315,PAYLOAD,LARGE,UK,1998-01-10,AFETR,,2652669,143157590,0 SKYNET 4D,1 25134U 98002A   19320.77202147 +.00000069 +00000-0 +00000-0 0  9994,2 25134 011.2471 024.9157 0001037 066.8804 112.6086 00.99151100079538
2,GENERATED VIA SPACE-TRACK.ORG API,2019-11-18T05:17:04,18 SPCS,SKYNET 4D,1998-002A,EARTH,TEME,UTC,SGP4,2019-11-17T07:53:48.889248,0.99151168,0.0001038,11.2475,24.9123,63.329,314.9893,0,U,25134,999,7954,0.0,6.7e-07,0,42481.836,1452.327,36108.111,36099.292,PAYLOAD,LARGE,UK,1998-01-10,AFETR,,2653104,143224856,0 SKYNET 4D,1 25134U 98002A   19321.32903807 +.00000067 +00000-0 +00000-0 0  9995,2 25134 011.2475 024.9123 0001038 063.3290 314.9893 00.99151168079545
2,GENERATED VIA SPACE-TRACK.ORG API,2019-11-18T14:40:17,18 SPCS,SKYNET 4D,1998-002A,EARTH,TEME,UTC,SGP4,2019-11-18T07:59:56.046912,0.99151366,0.0001074,11.2482,24.9063,58.2921,318.4982,0,U,25134,999,7961,0.0,6e-07,0,42481.78,1452.324,36108.207,36099.082,PAYLOAD,LARGE,UK,1998-01-10,AFETR,,2653208,143240139,0 SKYNET 4D,1 25134U 98002A   19322.33328758  .00000060  00000-0  00000+0 0  9995,2 25134  11.2482  24.9063 0001074  58.2921 318.4982  0.99151366 79616
2,GENERATED VIA SPACE-TRACK.ORG API,2019-11-20T04:17:24,18 SPCS,SKYNET 4D,1998-002A,EARTH,TEME,UTC,SGP4,2019-11-19T04:27:59.688000,0.99151611,0.0001125,11.2488,24.9011,55.1111,266.0983,0,U,25134,999,7955,0.0,5.2e-07,0,42481.71,1452.321,36108.354,36098.795,PAYLOAD,LARGE,UK,1998-01-10,AFETR,,2653696,143295979,0 SKYNET 4D,1 25134U 98002A   19323.18610750 +.00000052 +00000-0 +00000-0 0  9997,2 25134 011.2488 024.9011 0001125 055.1111 266.0983 00.99151611079554
2,GENERATED VIA SPACE-TRACK.ORG API,2019-11-20T14:30:15,18 SPCS,SKYNET 4D,1998-002A,EARTH,TEME,UTC,SGP4,2019-11-20T08:11:55.572288,0.99151952,0.0001207,11.2496,24.8943,51.982,321.6938,0,U,25134,999,7963,0.0,3.8e-07,0,42481.612,1452.316,36108.605,36098.35,PAYLOAD,LARGE,UK,1998-01-10,AFETR,,2654068,143317770,0 SKYNET 4D,1 25134U 98002A   19324.34161542  .00000038  00000-0  00000+0 0  9999,2 25134  11.2496  24.8943 0001207  51.9820 321.6938  0.99151952 79633
2,GENERATED VIA SPACE-TRACK.ORG API,2019-11-22T06:05:54,18 SPCS,SKYNET 4D,1998-002A,EARTH,TEME,UTC,SGP4,2019-11-21T19:11:42.807264,0.99152501,0.0001326,11.2506,24.8856,49.6044,124.5835,0,U,25134,999,7958,0.0,1.4e-07,0,42481.455,1452.308,36108.953,36097.687,PAYLOAD,LARGE,UK,1998-01-10,AFETR,,2654872,143418957,0 SKYNET 4D,1 25134U 98002A   19325.79980101 +.00000014 +00000-0 +00000-0 0  9994,2 25134 011.2506 024.8856 0001326 049.6044 124.5835 00.99152501079583
2,GENERATED VIA SPACE-TRACK.ORG API,2019-11-22T14:40:16,18 SPCS,SKYNET 4D,1998-002A,EARTH,TEME,UTC,SGP4,2019-11-22T08:24:03.124224,0.99152773,0.0001365,11.251,24.8823,49.739,320.8606,0,U,25134,999,7965,0.0,4e-08,0,42481.378,1452.304,36109.041,36097.444,PAYLOAD,LARGE,UK,1998-01-10,AFETR,,2655121,143437432,0 SKYNET 4D,1 25134U 98002A   19326.35003616  .00000004  00000-0  00000+0 0  9992,2 25134  11.2510  24.8823 0001365  49.7390 320.8606  0.99152773 79656
2,GENERATED VIA SPACE-TRACK.ORG API,2019-11-24T14:50:18,18 SPCS,SKYNET 4D,1998-002A,EARTH,TEME,UTC,SGP4,2019-11-24T08:36:09.660960,0.99153782,0.0001503,11.2525,24.8702,50.2064,317.3195,0,U,25134,999,7967,0.0,-4e-07,0,42481.09,1452.289,36109.339,36096.57,PAYLOAD,LARGE,UK,1998-01-10,AFETR,,2656111,143554683,0 SKYNET 4D,1 25134U 98002A   19328.35844515 -.00000040  00000-0  00000+0 0  9996,2 25134  11.2525  24.8702 0001503  50.2064 317.3195  0.99153782 79674
2,GENERATED VIA SPACE-TRACK.ORG API,2019-11-25T06:10:39,18 SPCS,SKYNET 4D,1998-002A,EARTH,TEME,UTC,SGP4,2019-11-24T16:35:27.289248,0.99153933,0.0001524,11.2526,24.8681,50.5,75.8391,0,U,25134,999,7961,0.0,-4.8e-07,0,42481.046,1452.287,36109.386,36096.437,PAYLOAD,LARGE,UK,1998-01-10,AFETR,,2656502,143589552,0 SKYNET 4D,1 25134U 98002A   19328.69128807 -.00000048 +00000-0 +00000-0 0  9991,2 25134 011.2526 024.8681 0001524 050.5000 075.8391 00.99153933079613
2,GENERATED VIA SPACE-TRACK.ORG API,2019-11-26T04:32:32,18 SPCS,SKYNET 4D,1998-002A,EARTH,TEME,UTC,SGP4,2019-11-25T11:41:20.459904,0.99154394,0.000156,11.2532,24.8634,51.8026,358.5933,0,U,25134,999,7962,0.0,-6.7e-07,0,42480.915,1452.28,36109.407,36096.153,PAYLOAD,LARGE,UK,1998-01-10,AFETR,,2656997,143638785,0 SKYNET 4D,1 25134U 98002A   19329.48704236 -.00000067 +00000-0 +00000-0 0  9996,2 25134 011.2532 024.8634 0001560 051.8026 358.5933 00.99154394079626
2,GENERATED VIA SPACE-TRACK.ORG API,2019-11-26T14:30:18,18 SPCS,SKYNET 4D,1998-002A,EARTH,TEME,UTC,SGP4,2019-11-26T12:13:03.792288,0.99154955,0.0001594,11.254,24.8571,53.4174,1.8097,0,U,25134,999,7969,0.0,-9.3e-07,0,42480.755,1452.272,36109.391,36095.848,PAYLOAD,LARGE,UK,1998-01-10,AFETR,,2657241,143657091,0 SKYNET 4D,1 25134U 98002A   19330.50907167 -.00000093  00000-0  00000+0 0  9997,2 25134  11.2540  24.8571 0001594  53.4174   1.8097  0.99154955 79693
